OBJECT_NAME,OBJECT_ID,EPOCH,MEAN_MOTION,ECCENTRICITY,INCLINATION,RA_OF_ASC_NODE,ARG_OF_PERICENTER,MEAN_ANOMALY,EPHEMERIS_TYPE,CLASSIFICATION_TYPE,NORAD_CAT_ID,ELEMENT_SET_NO,REV_AT_EPOCH,BSTAR,MEAN_MOTION_DOT,MEAN_MOTION_DDOT
STARLINK-30801,2023-167K,2026-03-08T16:00:00.999936,15.27532887,.00008659,42.9991,149.5782,243.1360,127.1429,0,U,58184,999,579,.37855343E-2,.105253E-2,0
CZ-6A DEB,2022-151SD,2026-03-09T05:39:59.511744,15.24168391,.00253,98.6557,156.7540,175.9698,184.1745,0,U,54940,999,17670,.92674E-2,.234465E-2,0
